TOMORROW-S2             
1 60485U 24149T   26068.75188364  .00008133  00000+0  27683-3 0  9990
2 60485  97.3857 150.0385 0001648 234.3331 125.7757 15.30674935 86869
STARLINK-35311          
1 66032U 25232AD  26068.81782282  .00017724  00000+0  60910-3 0  9990
2 66032  53.1599 103.4047 0001790  89.3413 270.7793 15.30200109 23455
